SL-14 R/B               
1 16792U 86046B   26077.42875135  .00000456  00000+0  49643-4 0  9990
2 16792  82.4787  71.9216 0022630 195.4379 164.6150 14.85598990127708
SL-14 R/B               
1 16882U 86055B   26077.57568868  .00000415  00000+0  45024-4 0  9992
2 16882  82.5184 118.3209 0017571 305.5998 206.4638 14.85650621120683
AJISAI (EGS)            
1 16908U 86061A   26077.55641270 -.00000103  00000+0 -39081-4 0  9997
2 16908  50.0090  66.0812 0011299 309.8797 151.5388 12.44515700469108
SL-14 R/B               
1 17567U 87024B   26077.45896357  .00000450  00000+0  48526-4 0  9993
2 17567  82.5244  84.5188 0017015 228.4986 131.4771 14.86140529 89438
COSMOS 1833             
1 17589U 87027A   26077.56741051 -.00000220  00000+0 -91900-4 0  9993
2 17589  70.9200 307.3605 0023809 201.8075 158.2035 14.13052047 11574
SL-16 R/B               
1 17590U 87027B   26077.51534097 -.00000055  00000+0 -32674-5 0  9990
2 17590  70.9991 257.8951 0003100 122.5025 237.6399 14.17166802 16593
SL-14 R/B               
1 17912U 87038B   26077.52581164  .00000422  00000+0  46011-4 0  9993
2 17912  82.4986 288.4822 0020363 132.4162 227.8781 14.85377024 80549
COSMOS 1844             
1 17973U 87041A   26077.52244060  .00000009  00000+0  29565-4 0  9991
2 17973  70.9008  15.5452 0030475   4.9786 355.1632 14.14551207  4838
SL-14 R/B               
1 18153U 87055B   26077.43379101  .00000451  00000+0  49114-4 0  9995
2 18153  82.5026 340.7924 0020349 349.2081  10.8695 14.85638968 71237
COSMOS 1867             
1 18187U 87060A   26077.52326831 -.00000046  00000+0  20236-4 0  9995
2 18187  65.0096 281.9664 0014612 279.1411  80.8020 14.31504350 21207
SL-14 R/B               
1 18749U 88001B   26077.56444569  .00000502  00000+0  55234-4 0  9990
2 18749  82.5160 187.0154 0017442 204.7063 155.3320 14.85538195 43341
COSMOS 1933             
1 18958U 88020A   26077.42523069  .00003442  00000+0  16754-3 0  9990
2 18958  82.5101 242.2665 0004562 153.2832 206.8637 15.18064626 51555
