CCSDS_OMM_VERS = 2.0
CREATION_DATE  = 
ORIGINATOR     = 

OBJECT_NAME    = SL-14 R/B
OBJECT_ID      = 1986-046B
CENTER_NAME    = EARTH
REF_FRAME      = TEME
TIME_SYSTEM    = UTC
MEAN_ELEMENT_THEORY = SGP/SGP4

EPOCH          = 2026-03-18T10:17:24.116640
MEAN_MOTION    = 14.85598990
ECCENTRICITY   = .002263
INCLINATION    = 82.4787
RA_OF_ASC_NODE = 71.9216
ARG_OF_PERICENTER = 195.4379
MEAN_ANOMALY   = 164.6150

EPHEMERIS_TYPE = 0
CLASSIFICATION_TYPE = U
NORAD_CAT_ID   = 16792
ELEMENT_SET_NO = 999
REV_AT_EPOCH   = 12770
BSTAR          = .49643E-4
MEAN_MOTION_DOT = .456E-5
MEAN_MOTION_DDOT = 0

CCSDS_OMM_VERS = 2.0
CREATION_DATE  = 
ORIGINATOR     = 

OBJECT_NAME    = SL-14 R/B
OBJECT_ID      = 1986-055B
CENTER_NAME    = EARTH
REF_FRAME      = TEME
TIME_SYSTEM    = UTC
MEAN_ELEMENT_THEORY = SGP/SGP4

EPOCH          = 2026-03-18T13:48:59.501952
MEAN_MOTION    = 14.85650621
ECCENTRICITY   = .0017571
INCLINATION    = 82.5184
RA_OF_ASC_NODE = 118.3209
ARG_OF_PERICENTER = 305.5998
MEAN_ANOMALY   = 206.4638

EPHEMERIS_TYPE = 0
CLASSIFICATION_TYPE = U
NORAD_CAT_ID   = 16882
ELEMENT_SET_NO = 999
REV_AT_EPOCH   = 12068
BSTAR          = .45024E-4
MEAN_MOTION_DOT = .415E-5
MEAN_MOTION_DDOT = 0

CCSDS_OMM_VERS = 2.0
CREATION_DATE  = 
ORIGINATOR     = 

OBJECT_NAME    = AJISAI (EGS)
OBJECT_ID      = 1986-061A
CENTER_NAME    = EARTH
REF_FRAME      = TEME
TIME_SYSTEM    = UTC
MEAN_ELEMENT_THEORY = SGP/SGP4

EPOCH          = 2026-03-18T13:21:14.057280
MEAN_MOTION    = 12.44515700
ECCENTRICITY   = .0011299
INCLINATION    = 50.0090
RA_OF_ASC_NODE = 66.0812
ARG_OF_PERICENTER = 309.8797
MEAN_ANOMALY   = 151.5388

EPHEMERIS_TYPE = 0
CLASSIFICATION_TYPE = U
NORAD_CAT_ID   = 16908
ELEMENT_SET_NO = 999
REV_AT_EPOCH   = 46910
BSTAR          = -.39081E-4
MEAN_MOTION_DOT = -.103E-5
MEAN_MOTION_DDOT = 0

CCSDS_OMM_VERS = 2.0
CREATION_DATE  = 
ORIGINATOR     = 

OBJECT_NAME    = SL-14 R/B
OBJECT_ID      = 1987-024B
CENTER_NAME    = EARTH
REF_FRAME      = TEME
TIME_SYSTEM    = UTC
MEAN_ELEMENT_THEORY = SGP/SGP4

EPOCH          = 2026-03-18T11:00:54.452448
MEAN_MOTION    = 14.86140529
ECCENTRICITY   = .0017015
INCLINATION    = 82.5244
RA_OF_ASC_NODE = 84.5188
ARG_OF_PERICENTER = 228.4986
MEAN_ANOMALY   = 131.4771

EPHEMERIS_TYPE = 0
CLASSIFICATION_TYPE = U
NORAD_CAT_ID   = 17567
ELEMENT_SET_NO = 999
REV_AT_EPOCH   = 8943
BSTAR          = .48526E-4
MEAN_MOTION_DOT = .45E-5
MEAN_MOTION_DDOT = 0

CCSDS_OMM_VERS = 2.0
CREATION_DATE  = 
ORIGINATOR     = 

OBJECT_NAME    = COSMOS 1833
OBJECT_ID      = 1987-027A
CENTER_NAME    = EARTH
REF_FRAME      = TEME
TIME_SYSTEM    = UTC
MEAN_ELEMENT_THEORY = SGP/SGP4

EPOCH          = 2026-03-18T13:37:04.268064
MEAN_MOTION    = 14.13052047
ECCENTRICITY   = .0023809
INCLINATION    = 70.9200
RA_OF_ASC_NODE = 307.3605
ARG_OF_PERICENTER = 201.8075
MEAN_ANOMALY   = 158.2035

EPHEMERIS_TYPE = 0
CLASSIFICATION_TYPE = U
NORAD_CAT_ID   = 17589
ELEMENT_SET_NO = 999
REV_AT_EPOCH   = 1157
BSTAR          = -.919E-4
MEAN_MOTION_DOT = -.22E-5
MEAN_MOTION_DDOT = 0

CCSDS_OMM_VERS = 2.0
CREATION_DATE  = 
ORIGINATOR     = 

OBJECT_NAME    = SL-16 R/B
OBJECT_ID      = 1987-027B
CENTER_NAME    = EARTH
REF_FRAME      = TEME
TIME_SYSTEM    = UTC
MEAN_ELEMENT_THEORY = SGP/SGP4

EPOCH          = 2026-03-18T12:22:05.459808
MEAN_MOTION    = 14.17166802
ECCENTRICITY   = .00031
INCLINATION    = 70.9991
RA_OF_ASC_NODE = 257.8951
ARG_OF_PERICENTER = 122.5025
MEAN_ANOMALY   = 237.6399

EPHEMERIS_TYPE = 0
CLASSIFICATION_TYPE = U
NORAD_CAT_ID   = 17590
ELEMENT_SET_NO = 999
REV_AT_EPOCH   = 1659
BSTAR          = -.32674E-5
MEAN_MOTION_DOT = -.55E-6
MEAN_MOTION_DDOT = 0

CCSDS_OMM_VERS = 2.0
CREATION_DATE  = 
ORIGINATOR     = 

OBJECT_NAME    = SL-14 R/B
OBJECT_ID      = 1987-038B
CENTER_NAME    = EARTH
REF_FRAME      = TEME
TIME_SYSTEM    = UTC
MEAN_ELEMENT_THEORY = SGP/SGP4

EPOCH          = 2026-03-18T12:37:10.125696
MEAN_MOTION    = 14.85377024
ECCENTRICITY   = .0020363
INCLINATION    = 82.4986
RA_OF_ASC_NODE = 288.4822
ARG_OF_PERICENTER = 132.4162
MEAN_ANOMALY   = 227.8781

EPHEMERIS_TYPE = 0
CLASSIFICATION_TYPE = U
NORAD_CAT_ID   = 17912
ELEMENT_SET_NO = 999
REV_AT_EPOCH   = 8054
BSTAR          = .46011E-4
MEAN_MOTION_DOT = .422E-5
MEAN_MOTION_DDOT = 0

CCSDS_OMM_VERS = 2.0
CREATION_DATE  = 
ORIGINATOR     = 

OBJECT_NAME    = COSMOS 1844
OBJECT_ID      = 1987-041A
CENTER_NAME    = EARTH
REF_FRAME      = TEME
TIME_SYSTEM    = UTC
MEAN_ELEMENT_THEORY = SGP/SGP4

EPOCH          = 2026-03-18T12:32:18.867840
MEAN_MOTION    = 14.14551207
ECCENTRICITY   = .0030475
INCLINATION    = 70.9008
RA_OF_ASC_NODE = 15.5452
ARG_OF_PERICENTER = 4.9786
MEAN_ANOMALY   = 355.1632

EPHEMERIS_TYPE = 0
CLASSIFICATION_TYPE = U
NORAD_CAT_ID   = 17973
ELEMENT_SET_NO = 999
REV_AT_EPOCH   = 483
BSTAR          = .29565E-4
MEAN_MOTION_DOT = .9E-7
MEAN_MOTION_DDOT = 0

CCSDS_OMM_VERS = 2.0
CREATION_DATE  = 
ORIGINATOR     = 

OBJECT_NAME    = SL-14 R/B
OBJECT_ID      = 1987-055B
CENTER_NAME    = EARTH
REF_FRAME      = TEME
TIME_SYSTEM    = UTC
MEAN_ELEMENT_THEORY = SGP/SGP4

EPOCH          = 2026-03-18T10:24:39.543264
MEAN_MOTION    = 14.85638968
ECCENTRICITY   = .0020349
INCLINATION    = 82.5026
RA_OF_ASC_NODE = 340.7924
ARG_OF_PERICENTER = 349.2081
MEAN_ANOMALY   = 10.8695

EPHEMERIS_TYPE = 0
CLASSIFICATION_TYPE = U
NORAD_CAT_ID   = 18153
ELEMENT_SET_NO = 999
REV_AT_EPOCH   = 7123
BSTAR          = .49114E-4
MEAN_MOTION_DOT = .451E-5
MEAN_MOTION_DDOT = 0

CCSDS_OMM_VERS = 2.0
CREATION_DATE  = 
ORIGINATOR     = 

OBJECT_NAME    = COSMOS 1867
OBJECT_ID      = 1987-060A
CENTER_NAME    = EARTH
REF_FRAME      = TEME
TIME_SYSTEM    = UTC
MEAN_ELEMENT_THEORY = SGP/SGP4

EPOCH          = 2026-03-18T12:33:30.381984
MEAN_MOTION    = 14.31504350
ECCENTRICITY   = .0014612
INCLINATION    = 65.0096
RA_OF_ASC_NODE = 281.9664
ARG_OF_PERICENTER = 279.1411
MEAN_ANOMALY   = 80.8020

EPHEMERIS_TYPE = 0
CLASSIFICATION_TYPE = U
NORAD_CAT_ID   = 18187
ELEMENT_SET_NO = 999
REV_AT_EPOCH   = 2120
BSTAR          = .20236E-4
MEAN_MOTION_DOT = -.46E-6
MEAN_MOTION_DDOT = 0

CCSDS_OMM_VERS = 2.0
CREATION_DATE  = 
ORIGINATOR     = 

OBJECT_NAME    = SL-14 R/B
OBJECT_ID      = 1988-001B
CENTER_NAME    = EARTH
REF_FRAME      = TEME
TIME_SYSTEM    = UTC
MEAN_ELEMENT_THEORY = SGP/SGP4

EPOCH          = 2026-03-18T13:32:48.107616
MEAN_MOTION    = 14.85538195
ECCENTRICITY   = .0017442
INCLINATION    = 82.5160
RA_OF_ASC_NODE = 187.0154
ARG_OF_PERICENTER = 204.7063
MEAN_ANOMALY   = 155.3320

EPHEMERIS_TYPE = 0
CLASSIFICATION_TYPE = U
NORAD_CAT_ID   = 18749
ELEMENT_SET_NO = 999
REV_AT_EPOCH   = 4334
BSTAR          = .55234E-4
MEAN_MOTION_DOT = .502E-5
MEAN_MOTION_DDOT = 0

CCSDS_OMM_VERS = 2.0
CREATION_DATE  = 
ORIGINATOR     = 

OBJECT_NAME    = COSMOS 1933
OBJECT_ID      = 1988-020A
CENTER_NAME    = EARTH
REF_FRAME      = TEME
TIME_SYSTEM    = UTC
MEAN_ELEMENT_THEORY = SGP/SGP4

EPOCH          = 2026-03-18T10:12:19.931616
MEAN_MOTION    = 15.18064626
ECCENTRICITY   = .0004562
INCLINATION    = 82.5101
RA_OF_ASC_NODE = 242.2665
ARG_OF_PERICENTER = 153.2832
MEAN_ANOMALY   = 206.8637

EPHEMERIS_TYPE = 0
CLASSIFICATION_TYPE = U
NORAD_CAT_ID   = 18958
ELEMENT_SET_NO = 999
REV_AT_EPOCH   = 5155
BSTAR          = .16754E-3
MEAN_MOTION_DOT = .3442E-4
MEAN_MOTION_DDOT = 0

